[{"OBJECT_NAME":"SINOD-D 3","OBJECT_ID":"2015-058P","EPOCH":"2026-03-09T19:29:37.516128","MEAN_MOTION":14.93212807,"ECCENTRICITY":0.01185207,"INCLINATION":64.7724,"RA_OF_ASC_NODE":225.9436,"ARG_OF_PERICENTER":98.0775,"MEAN_ANOMALY":263.3804,"EPHEMERIS_TYPE":0,"CLASSIFICATION_TYPE":"U","NORAD_CAT_ID":40977,"ELEMENT_SET_NO":999,"REV_AT_EPOCH":9991,"BSTAR":0.0005253062,"MEAN_MOTION_DOT":6.149e-5,"MEAN_MOTION_DDOT":0},{"OBJECT_NAME":"COSMOS 1275 DEB","OBJECT_ID":"1981-053HJ","EPOCH":"2026-03-09T06:45:04.046112","MEAN_MOTION":14.70355977,"ECCENTRICITY":0.00101535,"INCLINATION":82.9208,"RA_OF_ASC_NODE":350.4031,"ARG_OF_PERICENTER":24.8011,"MEAN_ANOMALY":101.3958,"EPHEMERIS_TYPE":0,"CLASSIFICATION_TYPE":"U","NORAD_CAT_ID":13814,"ELEMENT_SET_NO":999,"REV_AT_EPOCH":22456,"BSTAR":0.0031571154,"MEAN_MOTION_DOT":0.00019153,"MEAN_MOTION_DDOT":0}]
